{
    "links": {
        "self": "http://www.neowsapp.com/rest/v1/neo/3685635?api_key=iIulBulltgU6a56xZRHN4H3l9WmuAYTsLGpBGhQ2"
    },
    "id": "3685635",
    "neo_reference_id": "3685635",
    "name": "(2014 QE391)",
    "designation": "2014 QE391",
    "nasa_jpl_url": "http://ssd.jpl.nasa.gov/sbdb.cgi?sstr=3685635",
    "absolute_magnitude_h": 22.9,
    "estimated_diameter": {
        "kilometers": {
            "estimated_diameter_min": 0.0699125232,
            "estimated_diameter_max": 0.1563291544
        },
        "meters": {
            "estimated_diameter_min": 69.9125232246,
            "estimated_diameter_max": 156.3291544087
        },
        "miles": {
            "estimated_diameter_min": 0.0434416145,
            "estimated_diameter_max": 0.097138403
        },
        "feet": {
            "estimated_diameter_min": 229.3718026961,
            "estimated_diameter_max": 512.8909429502
        }
    },
    "is_potentially_hazardous_asteroid": false,
    "close_approach_data": [
        {
            "close_approach_date": "2011-08-15",
            "close_approach_date_full": "2011-Aug-15 21:57",
            "epoch_date_close_approach": 1313445420000,
            "relative_velocity": {
                "kilometers_per_second": "10.2978865122",
                "kilometers_per_hour": "37072.3914437951",
                "miles_per_hour": "23035.3423390626"
            },
            "miss_distance": {
                "astronomical": "0.4841605214",
                "lunar": "188.3384428246",
                "kilometers": "72429382.739529418",
                "miles": "45005531.5001172484"
            },
            "orbiting_body": "Earth"
        },
        {
            "close_approach_date": "2014-08-23",
            "close_approach_date_full": "2014-Aug-23 14:40",
            "epoch_date_close_approach": 1408804800000,
            "relative_velocity": {
                "kilometers_per_second": "5.0895779433",
                "kilometers_per_hour": "18322.4805959423",
                "miles_per_hour": "11384.8769014065"
            },
            "miss_distance": {
                "astronomical": "0.1801224268",
                "lunar": "70.0676240252",
                "kilometers": "26945931.388510916",
                "miles": "16743425.3618700008"
            },
            "orbiting_body": "Earth"
        },
        {
            "close_approach_date": "2196-08-22",
            "close_approach_date_full": "2196-Aug-22 11:13",
            "epoch_date_close_approach": 7152145980000,
            "relative_velocity": {
                "kilometers_per_second": "5.2751920604",
                "kilometers_per_hour": "18990.6914173344",
                "miles_per_hour": "11800.0771198432"
            },
            "miss_distance": {
                "astronomical": "0.2195486148",
                "lunar": "85.4044111572",
                "kilometers": "32844005.135530476",
                "miles": "20408318.4449175288"
            },
            "orbiting_body": "Earth"
        },
        {
            "close_approach_date": "2199-08-31",
            "close_approach_date_full": "2199-Aug-31 19:13",
            "epoch_date_close_approach": 7247560380000,
            "relative_velocity": {
                "kilometers_per_second": "10.3662105177",
                "kilometers_per_hour": "37318.3578635461",
                "miles_per_hour": "23188.1763069351"
            },
            "miss_distance": {
                "astronomical": "0.4359747613",
                "lunar": "169.5941821457",
                "kilometers": "65220895.664238431",
                "miles": "40526385.3322991078"
            },
            "orbiting_body": "Earth"
        }
    ],
    "orbital_data": {
        "orbit_id": "5",
        "orbit_determination_date": "2017-04-06 08:38:55",
        "first_observation_date": "2014-08-30",
        "last_observation_date": "2014-09-28",
        "data_arc_in_days": 29,
        "observations_used": 22,
        "orbit_uncertainty": "7",
        "minimum_orbit_intersection": ".166259",
        "jupiter_tisserand_invariant": "3.593",
        "epoch_osculation": "2459000.5",
        "eccentricity": ".445897923241678",
        "semi_major_axis": "2.118956968025896",
        "inclination": "5.279792143868628",
        "ascending_node_longitude": "167.1388224614895",
        "orbital_period": "1126.630832849996",
        "perihelion_distance": "1.174118456544667",
        "perihelion_argument": "160.6307672544183",
        "aphelion_distance": "3.063795479507126",
        "perihelion_time": "2459148.743450959282",
        "mean_anomaly": "312.6307635214107",
        "mean_motion": ".3195367901385422",
        "equinox": "J2000",
        "orbit_class": {
            "orbit_class_type": "AMO",
            "orbit_class_description": "Near-Earth asteroid orbits similar to that of 1221 Amor",
            "orbit_class_range": "1.017 AU < q (perihelion) < 1.3 AU"
        }
    },
    "is_sentry_object": false
}